$$SOE
2460154.500000000, A.D. 2023-Jul-29 00:00:00.0000, -4.942971695555600E+08, 2.902495829603912E+06, -1.014216094347359E+07,
2460161.500000000, A.D. 2023-Aug-05 00:00:00.0000, -4.948341180190088E+08, -6.354172515066469E+06, -1.173777305380146E+07,
2460168.500000000, A.D. 2023-Aug-12 00:00:00.0000, -4.951730868561409E+08, -1.560831809602670E+07, -1.332868581359788E+07,
2460175.500000000, A.D. 2023-Aug-19 00:00:00.0000, -4.953146425446190E+08, -2.485626141817955E+07, -1.491428120056300E+07,
2460182.500000000, A.D. 2023-Aug-26 00:00:00.0000, -4.952594031670350E+08, -3.409435063556600E+07, -1.649394699962130E+07,
2460189.500000000, A.D. 2023-Sep-02 00:00:00.0000, -4.950080375291873E+08, -4.331896142534772E+07, -1.806707676388285E+07,
2460196.500000000, A.D. 2023-Sep-09 00:00:00.0000, -4.945612643083940E+08, -5.252649695935935E+07, -1.963306978536309E+07,
2460203.500000000, A.D. 2023-Sep-16 00:00:00.0000, -4.939198510627680E+08, -6.171338803293833E+07, -2.119133109585923E+07,
2460210.500000000, A.D. 2023-Sep-23 00:00:00.0000, -4.930846126842772E+08, -7.087609306583205E+07, -2.274127151290905E+07,
2460217.500000000, A.D. 2023-Sep-30 00:00:00.0000, -4.920564096341328E+08, -8.001109678605631E+07, -2.428230760248329E+07,
2460224.500000000, A.D. 2023-Oct-07 00:00:00.0000, -4.908361483134350E+08, -8.911490814150624E+07, -2.581386138701414E+07,
2460231.500000000, A.D. 2023-Oct-14 00:00:00.0000, -4.894247825295957E+08, -9.818406075446452E+07, -2.733536016515049E+07,
2460238.500000000, A.D. 2023-Oct-21 00:00:00.0000, -4.878233128302024E+08, -1.072151143170993E+08, -2.884623660849188E+07,
2460245.500000000, A.D. 2023-Oct-28 00:00:00.0000, -4.860327851271094E+08, -1.162046546684031E+08, -3.034592881973348E+07,
2460252.500000000, A.D. 2023-Nov-04 00:00:00.0000, -4.840542898591122E+08, -1.251492933245924E+08, -3.183388030036196E+07,
2460259.500000000, A.D. 2023-Nov-11 00:00:00.0000, -4.818889615151605E+08, -1.340456670648278E+08, -3.330953989324544E+07,
2460266.500000000, A.D. 2023-Nov-18 00:00:00.0000, -4.795379782986379E+08, -1.428904376380766E+08, -3.477236172557336E+07,
2460273.500000000, A.D. 2023-Nov-25 00:00:00.0000, -4.770025618596621E+08, -1.516802915697154E+08, -3.622180515700205E+07,
2460280.500000000, A.D. 2023-Dec-02 00:00:00.0000, -4.742839770667654E+08, -1.604119400802158E+08, -3.765733473653697E+07,
2460287.500000000, A.D. 2023-Dec-09 00:00:00.0000, -4.713835317396582E+08, -1.690821191760249E+08, -3.907842018021015E+07,
2460294.500000000, A.D. 2023-Dec-16 00:00:00.0000, -4.683025760551531E+08, -1.776875899012232E+08, -4.048453639509619E+07,
2460301.500000000, A.D. 2023-Dec-23 00:00:00.0000, -4.650425012773489E+08, -1.862251380634345E+08, -4.187516352570125E+07,
2460308.500000000, A.D. 2023-Dec-30 00:00:00.0000, -4.616047391515006E+08, -1.946915723854472E+08, -4.324978681431138E+07,
2460315.500000000, A.D. 2024-Jan-06 00:00:00.0000, -4.579907637332675E+08, -2.030837234442322E+08, -4.460789630601289E+07,
2460322.500000000, A.D. 2024-Jan-13 00:00:00.0000, -4.542020924805351E+08, -2.113984452051239E+08, -4.594898683751635E+07,
2460329.500000000, A.D. 2024-Jan-20 00:00:00.0000, -4.502402853833776E+08, -2.196326160665126E+08, -4.727255817008287E+07,
2460336.500000000, A.D. 2024-Jan-27 00:00:00.0000, -4.461069441584093E+08, -2.277831387630469E+08, -4.857811502706423E+07,
2460343.500000000, A.D. 2024-Feb-03 00:00:00.0000, -4.418037119336259E+08, -2.358469400776923E+08, -4.986516707442692E+07,
2460350.500000000, A.D. 2024-Feb-10 00:00:00.0000, -4.373322731457487E+08, -2.438209706563861E+08, -5.113322889406016E+07,
2460357.500000000, A.D. 2024-Feb-17 00:00:00.0000, -4.326943535120725E+08, -2.517022049196113E+08, -5.238181996269335E+07,
2460364.500000000, A.D. 2024-Feb-24 00:00:00.0000, -4.278917200418099E+08, -2.594876410574473E+08, -5.361046463916528E+07,
2460371.500000000, A.D. 2024-Mar-02 00:00:00.0000, -4.229261810580332E+08, -2.671743011413372E+08, -5.481869216583598E+07,
2460378.500000000, A.D. 2024-Mar-09 00:00:00.0000, -4.177995860912776E+08, -2.747592314159338E+08, -5.600603670227988E+07,
2460385.500000000, A.D. 2024-Mar-16 00:00:00.0000, -4.125138252489757E+08, -2.822395025742704E+08, -5.717203741155642E+07,
2460392.500000000, A.D. 2024-Mar-23 00:00:00.0000, -4.070708281634110E+08, -2.896122089076826E+08, -5.831623849899313E+07,
2460399.500000000, A.D. 2024-Mar-30 00:00:00.0000, -4.014725647580553E+08, -2.968744663579093E+08, -5.943818900014292E+07,
2460406.500000000, A.D. 2024-Apr-06 00:00:00.0000, -3.957210475753738E+08, -3.040234128403990E+08, -6.053744261684930E+07,
2460413.500000000, A.D. 2024-Apr-13 00:00:00.0000, -3.898183321151862E+08, -3.110562100038766E+08, -6.161355785916676E+07,
2460420.500000000, A.D. 2024-Apr-20 00:00:00.0000, -3.837665161356396E+08, -3.179700437498807E+08, -6.266609818713823E+07,
2460427.500000000, A.D. 2024-Apr-27 00:00:00.0000, -3.775677394326029E+08, -3.247621240735857E+08, -6.369463205896263E+07,
2460434.500000000, A.D. 2024-May-04 00:00:00.0000, -3.712241840079352E+08, -3.314296849297055E+08, -6.469873295090954E+07,
2460441.500000000, A.D. 2024-May-11 00:00:00.0000, -3.647380743869067E+08, -3.379699842262649E+08, -6.567797937910847E+07,
2460448.500000000, A.D. 2024-May-18 00:00:00.0000, -3.581116780018598E+08, -3.443803039258445E+08, -6.663195492899133E+07,
2460455.500000000, A.D. 2024-May-25 00:00:00.0000, -3.513473056167460E+08, -3.506579502626018E+08, -6.756024829526120E+07,
2460462.500000000, A.D. 2024-Jun-01 00:00:00.0000, -3.444473117321364E+08, -3.568002541336340E+08, -6.846245334257713E+07,
2460469.500000000, A.D. 2024-Jun-08 00:00:00.0000, -3.374140947238857E+08, -3.628045716887569E+08, -6.933816921144086E+07,
2460476.500000000, A.D. 2024-Jun-15 00:00:00.0000, -3.302500963155215E+08, -3.686682845746127E+08, -7.018700046137863E+07,
2460483.500000000, A.D. 2024-Jun-22 00:00:00.0000, -3.229578013889410E+08, -3.743887986586202E+08, -7.100855706308664E+07,
2460490.500000000, A.D. 2024-Jun-29 00:00:00.0000, -3.155397402538807E+08, -3.799635430543028E+08, -7.180245419363090E+07,
2460497.500000000, A.D. 2024-Jul-06 00:00:00.0000, -3.079984907303332E+08, -3.853899719207407E+08, -7.256831227942707E+07,
2460504.500000000, A.D. 2024-Jul-13 00:00:00.0000, -3.003366780946155E+08, -3.906655662138154E+08, -7.330575723529792E+07,
2460511.500000000, A.D. 2024-Jul-20 00:00:00.0000, -2.925569748743840E+08, -3.957878342414196E+08, -7.401442062368041E+07,
2460518.500000000, A.D. 2024-Jul-27 00:00:00.0000, -2.846621011474707E+08, -4.007543119826329E+08, -7.469393975221577E+07,
2460525.500000000, A.D. 2024-Aug-03 00:00:00.0000, -2.766548250701037E+08, -4.055625635466567E+08, -7.534395776553082E+07,
2460532.500000000, A.D. 2024-Aug-10 00:00:00.0000, -2.685379634672658E+08, -4.102101817772799E+08, -7.596412374715909E+07,
2460539.500000000, A.D. 2024-Aug-17 00:00:00.0000, -2.603143824367380E+08, -4.146947889827478E+08, -7.655409283475110E+07,
2460546.500000000, A.D. 2024-Aug-24 00:00:00.0000, -2.519869979382188E+08, -4.190140378148181E+08, -7.711352635360530E+07,
2460553.500000000, A.D. 2024-Aug-31 00:00:00.0000, -2.435587762512713E+08, -4.231656123597145E+08, -7.764209198475432E+07,
2460560.500000000, A.D. 2024-Sep-07 00:00:00.0000, -2.350327339359486E+08, -4.271472293154461E+08, -7.813946399127632E+07,
2460567.500000000, A.D. 2024-Sep-14 00:00:00.0000, -2.264119372099545E+08, -4.309566382598639E+08, -7.860532342947903E+07,
2460574.500000000, A.D. 2024-Sep-21 00:00:00.0000, -2.176995027694460E+08, -4.345916205963877E+08, -7.903935812502289E+07,
2460581.500000000, A.D. 2024-Sep-28 00:00:00.0000, -2.088986005380408E+08, -4.380499904048595E+08, -7.944126263284880E+07,
2460588.500000000, A.D. 2024-Oct-05 00:00:00.0000, -2.000124546713189E+08, -4.413295971974150E+08, -7.981073851761571E+07,
2460595.500000000, A.D. 2024-Oct-12 00:00:00.0000, -1.910443431752387E+08, -4.444283276017904E+08, -8.014749467860261E+07,
2460602.500000000, A.D. 2024-Oct-19 00:00:00.0000, -1.819975978876703E+08, -4.473441062452220E+08, -8.045124758121443E+07,
2460609.500000000, A.D. 2024-Oct-26 00:00:00.0000, -1.728756048539516E+08, -4.500748966423005E+08, -8.072172145816869E+07,
2460616.500000000, A.D. 2024-Nov-02 00:00:00.0000, -1.636818048376032E+08, -4.526187022366383E+08, -8.095864851648927E+07,
2460623.500000000, A.D. 2024-Nov-09 00:00:00.0000, -1.544196938677007E+08, -4.549735675768121E+08, -8.116176915772280E+07,
2460630.500000000, A.D. 2024-Nov-16 00:00:00.0000, -1.450928237947666E+08, -4.571375796274837E+08, -8.133083221391809E+07,
2460637.500000000, A.D. 2024-Nov-23 00:00:00.0000, -1.357048028058935E+08, -4.591088692668354E+08, -8.146559520789531E+07,
2460644.500000000, A.D. 2024-Nov-30 00:00:00.0000, -1.262592956883589E+08, -4.608856130141541E+08, -8.156582466047457E+07,
2460651.500000000, A.D. 2024-Dec-07 00:00:00.0000, -1.167600234197209E+08, -4.624660345680510E+08, -8.163129644876704E+07,
2460658.500000000, A.D. 2024-Dec-14 00:00:00.0000, -1.072107627702919E+08, -4.638484049321645E+08, -8.166179605223969E+07,
2460665.500000000, A.D. 2024-Dec-21 00:00:00.0000, -9.761534823331159E+07, -4.650310423693715E+08, -8.165711857502520E+07,
2460672.500000000, A.D. 2024-Dec-28 00:00:00.0000, -8.797767430640465E+07, -4.660123151525466E+08, -8.161706896776545E+07,
2460679.500000000, A.D. 2025-Jan-04 00:00:00.0000, -7.830169552341330E+07, -4.667906447376313E+08, -8.154146249318546E+07,
2460686.500000000, A.D. 2025-Jan-11 00:00:00.0000, -6.859142605466607E+07, -4.673645077010130E+08, -8.143012513277361E+07,
2460693.500000000, A.D. 2025-Jan-18 00:00:00.0000, -5.885093978923465E+07, -4.677324373611041E+08, -8.128289392538509E+07,
2460700.500000000, A.D. 2025-Jan-25 00:00:00.0000, -4.908437065196881E+07, -4.678930255593571E+08, -8.109961729860491E+07,
2460707.500000000, A.D. 2025-Feb-01 00:00:00.0000, -3.929591296173901E+07, -4.678449246313081E+08, -8.088015541238680E+07,
2460714.500000000, A.D. 2025-Feb-08 00:00:00.0000, -2.948982176797216E+07, -4.675868495483842E+08, -8.062438051842335E+07,
$$EOE